WNISAT-1                
1 39423U 13066H   24125.49502455  .00001644  00000+0  32173-3 0  9998
2 39423  97.6734 323.3614 0171184 146.0988 215.1294 14.55105823554292
TRITON-1                
1 39427U 13066M   24125.53262940  .00002612  00000+0  37599-3 0  9992
2 39427  97.8431  44.9386 0102224 222.0507 137.2824 14.73680888559977
DELFI-N3XT              
1 39428U 13066N   24124.71509352  .00005685  00000+0  74177-3 0  9999
2 39428  97.8386  44.2490 0100687 232.1754 127.0312 14.77392487559522
GOMX-1                  
1 39430U 13066Q   24125.37775356  .00002846  00000+0  47898-3 0  9990
2 39430  97.7390   2.4069 0141751  32.6700 328.3173 14.63845082556637
CUBEBUG-2 (LO-74)       
1 39440U 13066AA  24125.12170204  .00005156  00000+0  61590-3 0  9997
2 39440  97.8106  69.7664 0072383  58.9877 301.8420 14.82759202563000
NEE-02 KRYSAOR          
1 39441U 13066AB  24124.81776282  .00002965  00000+0  38223-3 0  9993
2 39441  97.8199  65.5074 0076675  80.4752 280.5115 14.79717954561378
FUNCUBE-1 (AO-73)       
1 39444U 13066AE  24124.87620370  .00006103  00000+0  60457-3 0  9990
2 39444  97.7158  84.8833 0046729 289.1673  70.4491 14.91365219563506
UWE-3                   
1 39446U 13066AG  24125.41173944  .00005164  00000+0  58410-3 0  9995
2 39446  97.7780  76.1116 0061284   5.3797 354.8064 14.85521396562793
BRITE-CA1 (TORONTO)     
1 40020U 14033L   24125.36939805  .00001598  00000+0  26593-3 0  9994
2 40020  97.8708 264.0568 0082476 231.4559 127.9235 14.69208668528547
DUCHIFAT-1              
1 40021U 14033M   24124.92759822  .00009804  00000+0  67952-3 0  9997
2 40021  98.0889 106.5424 0010791 243.8683 116.1433 15.05806795537465
NANOSATC-BR1            
1 40024U 14033Q   24124.86458959  .00009697  00000+0  74008-3 0  9990
2 40024  98.0604  95.1697 0005796 330.5713  29.5183 15.02207323536596
QB50P1                  
1 40025U 14033R   24125.17195499  .00006975  00000+0  58161-3 0  9991
2 40025  98.0396  84.5183 0007650 317.2757  42.7870 14.98912508536792
QB50P2                  
1 40032U 14033Y   24125.10321096  .00004981  00000+0  43036-3 0  9996
2 40032  98.0044  76.4249 0008329 312.0643  47.9868 14.97675648536596
PERSEUS-M2              
1 40037U 14033AD  24124.78130881  .00002017  00000+0  21388-3 0  9998
2 40037  97.9255  55.4274 0012883 349.2895  10.8046 14.90183791535210
PERSEUS-M1              
1 40039U 14033AF  24124.79964757  .00002690  00000+0  28494-3 0  9990
2 40039  97.9063  51.6275 0012647 348.6598  11.4333 14.89940946535070
POLYITAN-1              
1 40042U 14033AJ  24125.45115211  .00008553  00000+0  66774-3 0  9998
2 40042  98.0621  87.9869 0012466 285.3776  74.6070 15.01334542536783
TIGRISAT                
1 40043U 14033AK  24125.42840843  .00002819  00000+0  38158-3 0  9996
2 40043  97.6914 290.0698 0056982  86.4749 274.2978 14.78607036531292
AEROCUBE 6A             
1 40045U 14033AM  24125.47817633  .00004771  00000+0  58204-3 0  9997
2 40045  97.6682 300.7117 0051933  66.1259 294.5385 14.82822158531558
AEROCUBE 6B             
1 40046U 14033AN  24125.47196009  .00004774  00000+0  57118-3 0  9991
2 40046  97.6641 299.3730 0050458  61.9252 298.7051 14.83678875531748
UKUBE-1                 
1 40074U 14037F   24125.51895851  .00005668  00000+0  55148-3 0  9996
2 40074  98.3419  52.7892 0003292 189.8751 170.2403 14.92974104532265
BRITE-PL2 (HEWELIUSZ)   
1 40119U 14049B   24125.52969925  .00002541  00000+0  27851-3 0  9991
2 40119  97.8794 225.4104 0016886 144.9857 215.2474 14.88550496526172
CP10 (EXOCUBE)          
1 40380U 15003E   24125.49225865  .00117319  00000+0  84223-3 0  9992
2 40380  99.0960 138.7268 0040687 259.5268 100.1404 15.72132800512543
AEROCUBE 5C             
1 40965U 15058B   24125.21917969  .00004457  00000+0  42419-3 0  9993
2 40965  64.7685 136.5965 0188269 321.7793  37.0087 14.82253421250513
AEROCUBE 7              
1 40966U 15058C   24125.22065231  .00005746  00000+0  52505-3 0  9990
2 40966  64.7663 130.7556 0183649 321.4642  37.3470 14.83978851250600
BISONSAT                
1 40968U 15058E   24125.42574085  .00005137  00000+0  47791-3 0  9991
2 40968  64.7765 142.8295 0183325 316.5270  42.1504 14.83496095  1322
SNAP-3 EDDIE            
1 40972U 15058J   24125.19238009  .00015758  00000+0  11319-2 0  9999
2 40972  64.7680  96.8524 0156476 315.6654  43.2013 14.95063744  1308
PROPCUBE 1 (FLORA)      
1 40976U 15058N   24125.19571688  .00003273  00000+0  33287-3 0  9994
2 40976  64.7753 161.0713 0186757 320.1889  38.5636 14.80492656  1281
VELOX-II                
1 41171U 15077F   24125.11427894  .00101863  00000+0  12156-2 0  9999
2 41171  14.9887  42.8880 0002215 223.3850 136.6303 15.59167513464926
HORYU-4                 
1 41340U 16012D   24125.48183548  .00009317  00000+0  47901-3 0  9990
2 41340  31.0021 260.1950 0009235 247.5003 112.4659 15.15110898451517
E-ST@R-II               
1 41459U 16025D   24125.22045691  .05080707  28349-5  14279-2 0  9993
2 41459  98.1041  13.4564 0002038   2.8998 357.2304 16.27808972442756
RAVAN                   
1 41849U 16067B   24124.75241250  .00009694  00000+0  55214-3 0  9992
2 41849  98.0632 299.8742 0013893 176.4740 183.6590 15.12967907409260
CELTEE 1                
1 41850U 16067C   24124.92374375  .00005629  00000+0  39212-3 0  9992
2 41850  98.1001 292.1757 0001160  62.6182 297.5162 15.05875114408769
OPTICUBE 04             
1 41851U 16067D   24125.20120126  .00004159  00000+0  31860-3 0  9996
2 41851  98.0717 288.3203 0018371 202.3676 157.6749 15.02318925408631
AEROCUBE 8D             
1 41852U 16067E   24124.74800319  .00007534  00000+0  50813-3 0  9993
2 41852  98.1040 291.6312 0004496 251.4340 108.6398 15.06950833408704
AEROCUBE 8C             
1 41853U 16067F   24124.42812796  .00007654  00000+0  51672-3 0  9998
2 41853  98.0845 289.9863 0008336 184.1039 176.0120 15.06888090408642
PROMETHEUS 2-1          
1 41854U 16067G   24125.47136065  .00011684  00000+0  62537-3 0  9993
2 41854  98.0986 297.7388 0013515 203.1427 156.9196 15.15140919409110
PROMETHEUS 2-3          
1 41855U 16067H   24125.46699901  .00011591  00000+0  62098-3 0  9995
2 41855  98.0912 297.2651 0011396 212.0143 148.0396 15.15130343409111
DIDO-2                  
1 42000U 17008BE  24125.14929429  .00117210  00000+0  83325-3 0  9991
2 42000  97.1401 185.4143 0003522 247.2814 112.8079 15.73523903401849
AALTO-1                 
1 42775U 17036L   24124.81451198  .00052050  00000+0  64915-3 0  9991
2 42775  97.1105 154.1371 0004279  37.4330 322.7224 15.59727415382173
URSA MAIOR              
1 42776U 17036M   24125.08273432  .00118544  00000+0  88875-3 0  9997
2 42776  97.1062 157.9237 0001174  41.5024 318.6329 15.72269203382435
CICERO 6                
1 42793U 17036AE  24125.54821563  .00190133  00000+0  10545-2 0  9993
2 42793  97.0903 162.6896 0000776 142.2790 217.8533 15.79011807382896
CORVUS BC2              
1 42846U 17042X   24125.48960095  .00002839  00000+0  24967-3 0  9995
2 42846  97.3759 313.0410 0007729 196.0053 164.0927 14.97252436370908
CORVUS BC1              
1 42847U 17042Y   24124.78685966  .00003741  00000+0  32633-3 0  9991
2 42847  97.3738 312.7735 0007947 198.6681 161.4251 14.97390937370819
MIRATA                  
1 43015U 17073C   24124.64584840  .00018426  00000+0  90361-3 0  9995
2 43015  97.6008   9.9587 0177220  53.3480 308.3892 15.05358568349628
MAKERSAT 0              
1 43016U 17073D   24125.39544354  .00011008  00000+0  63883-3 0  9993
2 43016  97.5876   5.6211 0201622  69.9947 292.2860 14.96690896349351
CORVUS BC3              
1 43118U 18004H   24125.46513115  .00151098  00000+0  91398-3 0  9996
2 43118  97.2867 210.0042 0001130 329.2467  30.8732 15.77162604352007
GOMX-4B                 
1 43196U 18015E   24125.19104077  .00037752  00000+0  50371-3 0  9993
2 43196  97.6060 295.6215 0008554 122.5890 237.6192 15.57967852348664
GOMX-4A                 
1 43197U 18015F   24125.53720070  .00063849  00000+0  60679-3 0  9997
2 43197  97.5978 300.4431 0006547 114.8019 245.3922 15.66647453349024
CICERO 10               
1 43690U 18088A   24125.22505271  .00079105  00000+0  71520-3 0  9994
2 43690  85.0170 210.8776 0005673 125.3836 234.7962 15.67815106305275
PROXIMA I               
1 43694U 18088E   24125.18618791  .00407269  64306-4  10480-2 0  9992
2 43694  85.0034 203.8076 0003767 260.1859  99.8997 15.95181595305792
PROXIMA II              
1 43696U 18088G   24125.22543410  .00338714  41878-4  10018-2 0  9998
2 43696  85.0051 203.9797 0003528 260.2478  99.8403 15.92523464305780
SIRION PATHFINDER-2     
1 43759U 18099B   24125.40555835  .00004031  00000+0  31022-3 0  9992
2 43759  97.5336 182.7948 0014341  81.0548 279.2300 15.02148149295937
CORVUS BC4              
1 43767U 18099K   24125.41966491  .00004515  00000+0  35319-3 0  9996
2 43767  97.5202 180.1431 0010363 139.7461 220.4533 15.01502237295827
MOVE-II                 
1 43780U 18099Y   24125.42949554  .00012433  00000+0  69259-3 0  9991
2 43780  97.5250 188.8796 0008823 128.3097 231.8929 15.13721318296306
SPACEBEE-7              
1 43816U 18099BL  24124.70055291  .00011848  00000+0  72945-3 0  9992
2 43816  97.5520 188.9790 0011702  86.4422 273.8145 15.10094546295697
SPACEBEE-6              
1 43818U 18099BN  24124.70239964  .00022425  00000+0  10403-2 0  9998
2 43818  97.5441 193.6304 0009787  93.7696 266.4658 15.20015565296142
SHIELDS 1               
1 43850U 18104B   24124.91859991  .00011455  00000+0  32260-3 0  9999
2 43850  85.0213 313.1360 0009572 230.5471 129.4933 15.36257922299365
SONATE                  
1 44400U 19038Q   24125.21414547  .00014168  00000+0  45880-3 0  9992
2 44400  97.7126 117.4165 0014115 258.8024 101.1630 15.32052091267344
